IRIDIUM 166             
1 43570U 18061B   24272.49465725  .00000477  00000+0  16321-3 0  9997
2 43570  86.3971 318.6520 0002242  98.8548 261.2902 14.34216660323577
IRIDIUM 158             
1 43571U 18061C   24272.39316961  .00000650  00000+0  22501-3 0  9994
2 43571  86.3967 318.7033 0002224  98.7101 261.4346 14.34215067323537
IRIDIUM 165             
1 43572U 18061D   24271.58134120  .00000680  00000+0  23582-3 0  9993
2 43572  86.3972 319.0770 0002308  94.6382 265.5078 14.34218494323438
IRIDIUM 155             
1 43573U 18061E   24271.54326709  .00000653  00000+0  22626-3 0  9994
2 43573  86.3964 318.9925 0002016  98.7976 261.3448 14.34218480323395
IRIDIUM 154             
1 43574U 18061F   24272.50099786  .00000190  00000+0  60849-4 0  9990
2 43574  86.3973 318.6955 0002122  90.6956 269.4483 14.34219292323584
IRIDIUM 163             
1 43575U 18061G   24272.06335909  .00000164  00000+0  51600-4 0  9998
2 43575  86.3970 318.8134 0002048  95.9514 264.1915 14.34218381323498
IRIDIUM 156             
1 43576U 18061H   24271.54960912  .00000466  00000+0  15937-3 0  9996
2 43576  86.3970 319.0354 0002329 103.7064 256.4391 14.34215086323408
IRIDIUM 164             
1 43577U 18061J   24272.50734366 -.00000067  00000+0 -31140-4 0  9990
2 43577  86.3965 318.6644 0002243  91.3730 268.7723 14.34217285323595
